COMMENT,ORIGINATOR,NORAD_CAT_ID,OBJECT_NAME,OBJECT_TYPE,CLASSIFICATION_TYPE,INTLDES,EPOCH,EPOCH_MICROSECONDS,MEAN_MOTION,ECCENTRICITY,INCLINATION,RA_OF_ASC_NODE,ARG_OF_PERICENTER,MEAN_ANOMALY,EPHEMERIS_TYPE,ELEMENT_SET_NO,REV_AT_EPOCH,BSTAR,MEAN_MOTION_DOT,MEAN_MOTION_DDOT,FILE,TLE_LINE0,TLE_LINE1,TLE_LINE2,OBJECT_ID,OBJECT_NUMBER,SEMIMAJOR_AXIS,PERIOD,APOGEE,PERIGEE,DECAYED
"GENERATED VIA SPACETRACK.ORG API","18 SPCS","48896","SPACEBEE-105","PAYLOAD","U","21059T","2022-04-29 03:43:36","754464","15.14639121","0.0007806","97.5472","248.9897","264.4578","95.5764","0","999","4646","0.00099555","0.00018379","0","3420627","0 SPACEBEE-105","1 48896U 21059T   22119.15528651  .00018379  00000-0  99555-3 0  9994","2 48896  97.5472 248.9897 0007806 264.4578  95.5764 15.14639121 46464","2021-059T","48896","6900.211","95.072","527.463","516.690","0"
"GENERATED VIA SPACETRACK.ORG API","18 SPCS","48896","SPACEBEE-105","PAYLOAD","U","21059T","2022-04-29 08:29:00","564000","15.14645772","0.0007791","97.5474","249.1862","263.5467","96.4878","0","999","4649","0.00095448","0.00017619","0","3421553","0 SPACEBEE-105","1 48896U 21059T   22119.35347875  .00017619  00000-0  95448-3 0  9996","2 48896  97.5474 249.1862 0007791 263.5467  96.4878 15.14645772 46499","2021-059T","48896","6900.191","95.072","527.432","516.680","0"
"GENERATED VIA SPACETRACK.ORG API","18 SPCS","48896","SPACEBEE-105","PAYLOAD","U","21059T","2022-04-29 21:10:03","691488","15.14662497","0.0007797","97.5475","249.7105","261.2943","98.7405","0","999","4657","0.00088048","0.00016253","0","3421985","0 SPACEBEE-105","1 48896U 21059T   22119.88198717  .00016253  00000-0  88048-3 0  9994","2 48896  97.5475 249.7105 0007797 261.2943  98.7405 15.14662497 46579","2021-059T","48896","6900.140","95.071","527.385","516.625","0"
"GENERATED VIA SPACETRACK.ORG API","18 SPCS","48896","SPACEBEE-105","PAYLOAD","U","21059T","2022-04-30 08:15:58","518720","15.14676069","0.0007809","97.5477","250.1692","259.6001","100.435","0","999","4664","0.00079278","0.0001463","0","3422619","0 SPACEBEE-105","1 48896U 21059T   22120.34442730  .00014630  00000-0  79278-3 0  9996","2 48896  97.5477 250.1692 0007809 259.6001 100.4350 15.14676069 46646","2021-059T","48896","6900.099","95.070","527.352","516.576","0"
"GENERATED VIA SPACETRACK.ORG API","18 SPCS","48896","SPACEBEE-105","PAYLOAD","U","21059T","2022-04-30 14:36:29","674656","15.14684535","0.0007819","97.5477","250.4315","258.6134","101.4219","0","999","4668","0.00082267","0.00015188","0","3422880","0 SPACEBEE-105","1 48896U 21059T   22120.60867679  .00015188  00000-0  82267-3 0  9999","2 48896  97.5477 250.4315 0007819 258.6134 101.4219 15.14684535 46684","2021-059T","48896","6900.073","95.069","527.334","516.543","0"
"GENERATED VIA SPACETRACK.ORG API","18 SPCS","48896","SPACEBEE-105","PAYLOAD","U","21059T","2022-04-30 20:57:00","710496","15.14691629","0.0007824","97.5477","250.6936","257.5194","102.5162","0","999","4672","0.00074946","0.00013831","0","3423346","0 SPACEBEE-105","1 48896U 21059T   22120.87292489  .00013831  00000-0  74946-3 0  9997","2 48896  97.5477 250.6936 0007824 257.5194 102.5162 15.14691629 46721","2021-059T","48896","6900.052","95.069","527.316","516.518","0"
"GENERATED VIA SPACETRACK.ORG API","18 SPCS","48896","SPACEBEE-105","PAYLOAD","U","21059T","2022-05-01 08:02:54","781728","15.14704125","0.0007862","97.5478","251.1523","255.6938","104.3421","0","999","4679","0.00070136","0.00012942","0","3424314","0 SPACEBEE-105","1 48896U 21059T   22121.33535627  .00012942  00000-0  70136-3 0  9992","2 48896  97.5478 251.1523 0007862 255.6938 104.3421 15.14704125 46798","2021-059T","48896","6900.014","95.068","527.304","516.454","0"
"GENERATED VIA SPACETRACK.ORG API","18 SPCS","48896","SPACEBEE-105","PAYLOAD","U","21059T","2022-05-01 20:43:56","220096","15.1471631","0.0007915","97.5478","251.6767","253.7206","106.3156","0","999","4687","0.00064361","0.00011874","0","3424470","0 SPACEBEE-105","1 48896U 21059T   22121.86384514  .00011874  00000-0  64361-3 0  9993","2 48896  97.5478 251.6767 0007915 253.7206 106.3156 15.14716310 46874","2021-059T","48896","6899.977","95.067","527.303","516.381","0"
"GENERATED VIA SPACETRACK.ORG API","18 SPCS","48896","SPACEBEE-105","PAYLOAD","U","21059T","2022-05-01 20:43:56","220096","15.1471631","0.0007915","97.5478","251.6767","253.7206","106.3156","0","999","4687","0.00064361","0.00011874","0","3424759","0 SPACEBEE-105","1 48896U 21059T   22121.86384514  .00011874  00000-0  64361-3 0  9993","2 48896  97.5478 251.6767 0007915 253.7206 106.3156 15.14716310 46874","2021-059T","48896","6899.977","95.067","527.303","516.381","0"
"GENERATED VIA SPACETRACK.ORG API","18 SPCS","48896","SPACEBEE-105","PAYLOAD","U","21059T","2022-05-02 07:49:49","667520","15.14727213","0.0007964","97.5478","252.1355","252.0246","108.0118","0","999","4694","0.00062844","0.00011595","0","3425830","0 SPACEBEE-105","1 48896U 21059T   22122.32626930  .00011595  00000-0  62844-3 0  9990","2 48896  97.5478 252.1355 0007964 252.0246 108.0118 15.14727213 46942","2021-059T","48896","6899.944","95.067","527.304","516.314","0"
"GENERATED VIA SPACETRACK.ORG API","18 SPCS","48896","SPACEBEE-105","PAYLOAD","U","21059T","2022-05-02 20:30:50","508000","15.14736147","0.0008032","97.548","252.66","250.2368","109.7998","0","999","4702","0.00055668","0.00010265","0","3426306","0 SPACEBEE-105","1 48896U 21059T   22122.85475125  .00010265  00000-0  55668-3 0  9995","2 48896  97.5480 252.6600 0008032 250.2368 109.7998 15.14736147 47025","2021-059T","48896","6899.917","95.066","527.324","516.240","0"
"GENERATED VIA SPACETRACK.ORG API","18 SPCS","48896","SPACEBEE-105","PAYLOAD","U","21059T","2022-05-02 22:05:58","90272","15.14737514","0.0008037","97.548","252.7255","250.0055","110.0312","0","999","4703","0.00056168","0.00010358","0","3426445","0 SPACEBEE-105","1 48896U 21059T   22122.92081123  .00010358  00000-0  56168-3 0  9993","2 48896  97.5480 252.7255 0008037 250.0055 110.0312 15.14737514 47033","2021-059T","48896","6899.913","95.066","527.323","516.232","0"
"GENERATED VIA SPACETRACK.ORG API","18 SPCS","48896","SPACEBEE-105","PAYLOAD","U","21059T","2022-05-03 07:36:43","452576","15.14745546","0.0008093","97.5482","253.1189","248.55","111.4869","0","999","4709","0.00055157","0.00010172","0","3427159","0 SPACEBEE-105","1 48896U 21059T   22123.31716959  .00010172  00000-0  55157-3 0  9990","2 48896  97.5482 253.1189 0008093 248.5500 111.4869 15.14745546 47097","2021-059T","48896","6899.888","95.065","527.337","516.169","0"
"GENERATED VIA SPACETRACK.ORG API","18 SPCS","48896","SPACEBEE-105","PAYLOAD","U","21059T","2022-05-04 07:23:36","32352","15.14770728","0.0008093","97.5485","254.1023","244.9727","115.0665","0","999","4724","0.00073197","0.00013537","0","3428367","0 SPACEBEE-105","1 48896U 21059T   22124.30805593  .00013537  00000-0  73197-3 0  9995","2 48896  97.5485 254.1023 0008093 244.9727 115.0665 15.14770728 47240","2021-059T","48896","6899.812","95.064","527.261","516.093","0"
"GENERATED VIA SPACETRACK.ORG API","18 SPCS","48896","SPACEBEE-105","PAYLOAD","U","21059T","2022-05-04 07:23:36","32352","15.14770728","0.0008093","97.5485","254.1023","244.9727","115.0665","0","999","4724","0.00073197","0.00013537","0","3428698","0 SPACEBEE-105","1 48896U 21059T   22124.30805593  .00013537  00000-0  73197-3 0  9995","2 48896  97.5485 254.1023 0008093 244.9727 115.0665 15.14770728 47240","2021-059T","48896","6899.812","95.064","527.261","516.093","0"
"GENERATED VIA SPACETRACK.ORG API","18 SPCS","48896","SPACEBEE-105","PAYLOAD","U","21059T","2022-05-05 07:10:27","221952","15.14803406","0.0008057","97.5487","255.086","241.1842","118.8582","0","999","4739","0.0011272","0.00020923","0","3430353","0 SPACEBEE-105","1 48896U 21059T   22125.29892618  .00020923  00000-0  11272-2 0  9990","2 48896  97.5487 255.0860 0008057 241.1842 118.8582 15.14803406 47393","2021-059T","48896","6899.712","95.062","527.137","516.018","0"
"GENERATED VIA SPACETRACK.ORG API","18 SPCS","48896","SPACEBEE-105","PAYLOAD","U","21059T","2022-05-05 15:06:03","977280","15.14805782","0.000806","97.5487","255.4137","239.7258","120.3177","0","999","4744","0.00086565","0.00016043","0","3430462","0 SPACEBEE-105","1 48896U 21059T   22125.62921270  .00016043  00000-0  86565-3 0  9990","2 48896  97.5487 255.4137 0008060 239.7258 120.3177 15.14805782 47445","2021-059T","48896","6899.705","95.062","527.131","516.009","0"
"GENERATED VIA SPACETRACK.ORG API","18 SPCS","48896","SPACEBEE-105","PAYLOAD","U","21059T","2022-05-05 21:26:33","379296","15.14812057","0.0008057","97.5488","255.6759","238.595","121.4494","0","999","4748","0.00092255","0.00017107","0","3430750","0 SPACEBEE-105","1 48896U 21059T   22125.89344189  .00017107  00000-0  92255-3 0  9992","2 48896  97.5488 255.6759 0008057 238.5950 121.4494 15.14812057 47481","2021-059T","48896","6899.686","95.061","527.110","515.992","0"
"GENERATED VIA SPACETRACK.ORG API","18 SPCS","48896","SPACEBEE-105","PAYLOAD","U","21059T","2022-05-06 08:32:24","542304","15.14822209","0.000805","97.5488","256.1347","236.356","123.6905","0","999","4755","0.00093471","0.00017339","0","3431775","0 SPACEBEE-105","1 48896U 21059T   22126.35583961  .00017339  00000-0  93471-3 0  9995","2 48896  97.5488 256.1347 0008050 236.3560 123.6905 15.14822209 47555","2021-059T","48896","6899.655","95.061","527.075","515.966","0"
"GENERATED VIA SPACETRACK.ORG API","18 SPCS","48896","SPACEBEE-105","PAYLOAD","U","21059T","2022-05-06 08:32:24","542304","15.14822209","0.000805","97.5488","256.1347","236.356","123.6905","0","999","4755","0.00093471","0.00017339","0","3432208","0 SPACEBEE-105","1 48896U 21059T   22126.35583961  .00017339  00000-0  93471-3 0  9995","2 48896  97.5488 256.1347 0008050 236.3560 123.6905 15.14822209 47555","2021-059T","48896","6899.655","95.061","527.075","515.966","0"
